[{"OBJECT_NAME":"SAPPHIRE","OBJECT_ID":"2013-009C","EPOCH":"2026-03-02T11:55:32.501280","MEAN_MOTION":14.35205057,"ECCENTRICITY":0.0010768,"INCLINATION":98.4214,"RA_OF_ASC_NODE":243.4964,"ARG_OF_PERICENTER":201.3802,"MEAN_ANOMALY":158.6936,"EPHEMERIS_TYPE":0,"CLASSIFICATION_TYPE":"U","NORAD_CAT_ID":39088,"ELEMENT_SET_NO":999,"REV_AT_EPOCH":68127,"BSTAR":9.1365598e-5,"MEAN_MOTION_DOT":2.19e-6,"MEAN_MOTION_DDOT":0},{"OBJECT_NAME":"PRAETORIAN SDA_602","OBJECT_ID":"2025-203A","EPOCH":"2026-03-02T15:12:17.790336","MEAN_MOTION":13.84331611,"ECCENTRICITY":0.0007062,"INCLINATION":81.3007,"RA_OF_ASC_NODE":109.476,"ARG_OF_PERICENTER":118.1175,"MEAN_ANOMALY":242.0697,"EPHEMERIS_TYPE":0,"CLASSIFICATION_TYPE":"U","NORAD_CAT_ID":65565,"ELEMENT_SET_NO":999,"REV_AT_EPOCH":2395,"BSTAR":0.00028874,"MEAN_MOTION_DOT":3.35e-6,"MEAN_MOTION_DDOT":0},{"OBJECT_NAME":"PRAETORIAN SDA_603","OBJECT_ID":"2025-203B","EPOCH":"2026-03-02T15:02:29.224032","MEAN_MOTION":13.83902041,"ECCENTRICITY":0.0010724,"INCLINATION":81.301,"RA_OF_ASC_NODE":109.3228,"ARG_OF_PERICENTER":119.4885,"MEAN_ANOMALY":240.7342,"EPHEMERIS_TYPE":0,"CLASSIFICATION_TYPE":"U","NORAD_CAT_ID":65566,"ELEMENT_SET_NO":999,"REV_AT_EPOCH":2396,"BSTAR":0.00027813,"MEAN_MOTION_DOT":3.21e-6,"MEAN_MOTION_DDOT":0},{"OBJECT_NAME":"PRAETORIAN SDA_604","OBJECT_ID":"2025-203C","EPOCH":"2026-03-02T15:39:34.063776","MEAN_MOTION":13.83033218,"ECCENTRICITY":0.0006656,"INCLINATION":81.3028,"RA_OF_ASC_NODE":109.5477,"ARG_OF_PERICENTER":124.6165,"MEAN_ANOMALY":235.562,"EPHEMERIS_TYPE":0,"CLASSIFICATION_TYPE":"U","NORAD_CAT_ID":65567,"ELEMENT_SET_NO":999,"REV_AT_EPOCH":2395,"BSTAR":-1.5368e-6,"MEAN_MOTION_DOT":1.0e-7,"MEAN_MOTION_DDOT":0},{"OBJECT_NAME":"PRAETORIAN SDA_605","OBJECT_ID":"2025-203D","EPOCH":"2026-03-02T19:04:24.044736","MEAN_MOTION":13.83527813,"ECCENTRICITY":0.0009504,"INCLINATION":81.2992,"RA_OF_ASC_NODE":109.1886,"ARG_OF_PERICENTER":115.0437,"MEAN_ANOMALY":245.1707,"EPHEMERIS_TYPE":0,"CLASSIFICATION_TYPE":"U","NORAD_CAT_ID":65568,"ELEMENT_SET_NO":999,"REV_AT_EPOCH":2398,"BSTAR":3.5685e-5,"MEAN_MOTION_DOT":5.1e-7,"MEAN_MOTION_DDOT":0},{"OBJECT_NAME":"PRAETORIAN SDA_606","OBJECT_ID":"2025-203E","EPOCH":"2026-03-02T15:15:19.533600","MEAN_MOTION":13.83530176,"ECCENTRICITY":0.0007055,"INCLINATION":81.303,"RA_OF_ASC_NODE":109.5223,"ARG_OF_PERICENTER":116.3209,"MEAN_ANOMALY":243.8672,"EPHEMERIS_TYPE":0,"CLASSIFICATION_TYPE":"U","NORAD_CAT_ID":65569,"ELEMENT_SET_NO":999,"REV_AT_EPOCH":2395,"BSTAR":0.00022897,"MEAN_MOTION_DOT":2.64e-6,"MEAN_MOTION_DDOT":0},{"OBJECT_NAME":"PRAETORIAN SDA_607","OBJECT_ID":"2025-203F","EPOCH":"2026-03-02T15:15:44.244000","MEAN_MOTION":13.84464087,"ECCENTRICITY":0.0010032,"INCLINATION":81.3015,"RA_OF_ASC_NODE":109.3433,"ARG_OF_PERICENTER":118.6249,"MEAN_ANOMALY":241.5918,"EPHEMERIS_TYPE":0,"CLASSIFICATION_TYPE":"U","NORAD_CAT_ID":65570,"ELEMENT_SET_NO":999,"REV_AT_EPOCH":2396,"BSTAR":0.00025052,"MEAN_MOTION_DOT":2.93e-6,"MEAN_MOTION_DDOT":0},{"OBJECT_NAME":"PRAETORIAN SDA_608","OBJECT_ID":"2025-203G","EPOCH":"2026-03-02T15:32:59.379936","MEAN_MOTION":13.83885885,"ECCENTRICITY":0.0007113,"INCLINATION":81.2984,"RA_OF_ASC_NODE":109.448,"ARG_OF_PERICENTER":124.1494,"MEAN_ANOMALY":236.0338,"EPHEMERIS_TYPE":0,"CLASSIFICATION_TYPE":"U","NORAD_CAT_ID":65571,"ELEMENT_SET_NO":999,"REV_AT_EPOCH":2395,"BSTAR":5.2859e-5,"MEAN_MOTION_DOT":7.1e-7,"MEAN_MOTION_DDOT":0},{"OBJECT_NAME":"PRAETORIAN SDA_609","OBJECT_ID":"2025-203H","EPOCH":"2026-03-02T14:45:40.682016","MEAN_MOTION":13.84313531,"ECCENTRICITY":0.0008136,"INCLINATION":81.3028,"RA_OF_ASC_NODE":109.4876,"ARG_OF_PERICENTER":118.4391,"MEAN_ANOMALY":241.7586,"EPHEMERIS_TYPE":0,"CLASSIFICATION_TYPE":"U","NORAD_CAT_ID":65572,"ELEMENT_SET_NO":999,"REV_AT_EPOCH":2395,"BSTAR":0.00024343,"MEAN_MOTION_DOT":2.84e-6,"MEAN_MOTION_DDOT":0},{"OBJECT_NAME":"PRAETORIAN SDA_610","OBJECT_ID":"2025-203J","EPOCH":"2026-03-02T15:10:37.479072","MEAN_MOTION":13.84010183,"ECCENTRICITY":0.0007762,"INCLINATION":81.2985,"RA_OF_ASC_NODE":109.4293,"ARG_OF_PERICENTER":119.7962,"MEAN_ANOMALY":240.3967,"EPHEMERIS_TYPE":0,"CLASSIFICATION_TYPE":"U","NORAD_CAT_ID":65573,"ELEMENT_SET_NO":999,"REV_AT_EPOCH":2395,"BSTAR":6.2216e-5,"MEAN_MOTION_DOT":8.1e-7,"MEAN_MOTION_DDOT":0},{"OBJECT_NAME":"PRAETORIAN SDA_611","OBJECT_ID":"2025-203K","EPOCH":"2026-03-02T15:48:43.747488","MEAN_MOTION":13.8329467,"ECCENTRICITY":0.0006805,"INCLINATION":81.2986,"RA_OF_ASC_NODE":109.4724,"ARG_OF_PERICENTER":127.243,"MEAN_ANOMALY":232.9348,"EPHEMERIS_TYPE":0,"CLASSIFICATION_TYPE":"U","NORAD_CAT_ID":65574,"ELEMENT_SET_NO":999,"REV_AT_EPOCH":2395,"BSTAR":-9.6198e-5,"MEAN_MOTION_DOT":-9.4e-7,"MEAN_MOTION_DDOT":0},{"OBJECT_NAME":"PRAETORIAN SDA_612","OBJECT_ID":"2025-203L","EPOCH":"2026-03-02T15:17:14.942400","MEAN_MOTION":13.85043543,"ECCENTRICITY":0.0010368,"INCLINATION":81.3004,"RA_OF_ASC_NODE":109.3402,"ARG_OF_PERICENTER":120.13,"MEAN_ANOMALY":240.0886,"EPHEMERIS_TYPE":0,"CLASSIFICATION_TYPE":"U","NORAD_CAT_ID":65575,"ELEMENT_SET_NO":999,"REV_AT_EPOCH":2396,"BSTAR":0.00022089,"MEAN_MOTION_DOT":2.62e-6,"MEAN_MOTION_DDOT":0},{"OBJECT_NAME":"PRAETORIAN SDA_613","OBJECT_ID":"2025-203M","EPOCH":"2026-03-02T15:14:29.920128","MEAN_MOTION":13.8298638,"ECCENTRICITY":0.0007014,"INCLINATION":81.2976,"RA_OF_ASC_NODE":109.4322,"ARG_OF_PERICENTER":119.7408,"MEAN_ANOMALY":240.4446,"EPHEMERIS_TYPE":0,"CLASSIFICATION_TYPE":"U","NORAD_CAT_ID":65576,"ELEMENT_SET_NO":999,"REV_AT_EPOCH":2395,"BSTAR":0.00016172,"MEAN_MOTION_DOT":1.88e-6,"MEAN_MOTION_DDOT":0},{"OBJECT_NAME":"PRAETORIAN SDA_614","OBJECT_ID":"2025-203N","EPOCH":"2026-03-02T14:32:44.712384","MEAN_MOTION":13.84762976,"ECCENTRICITY":0.0008298,"INCLINATION":81.2989,"RA_OF_ASC_NODE":109.42,"ARG_OF_PERICENTER":117.5212,"MEAN_ANOMALY":242.6789,"EPHEMERIS_TYPE":0,"CLASSIFICATION_TYPE":"U","NORAD_CAT_ID":65577,"ELEMENT_SET_NO":999,"REV_AT_EPOCH":2396,"BSTAR":-0.00058033,"MEAN_MOTION_DOT":-6.41e-6,"MEAN_MOTION_DDOT":0},{"OBJECT_NAME":"PRAETORIAN SDA_615","OBJECT_ID":"2025-203P","EPOCH":"2026-03-02T15:05:33.933408","MEAN_MOTION":13.84419965,"ECCENTRICITY":0.001059,"INCLINATION":81.3,"RA_OF_ASC_NODE":109.2957,"ARG_OF_PERICENTER":117.4633,"MEAN_ANOMALY":242.7602,"EPHEMERIS_TYPE":0,"CLASSIFICATION_TYPE":"U","NORAD_CAT_ID":65578,"ELEMENT_SET_NO":999,"REV_AT_EPOCH":2396,"BSTAR":3.0522e-5,"MEAN_MOTION_DOT":4.6e-7,"MEAN_MOTION_DDOT":0},{"OBJECT_NAME":"PRAETORIAN SDA_616","OBJECT_ID":"2025-203Q","EPOCH":"2026-03-02T15:47:37.451904","MEAN_MOTION":13.83296766,"ECCENTRICITY":0.0006542,"INCLINATION":81.3037,"RA_OF_ASC_NODE":109.5533,"ARG_OF_PERICENTER":127.169,"MEAN_ANOMALY":233.0064,"EPHEMERIS_TYPE":0,"CLASSIFICATION_TYPE":"U","NORAD_CAT_ID":65579,"ELEMENT_SET_NO":999,"REV_AT_EPOCH":2395,"BSTAR":0.00028399,"MEAN_MOTION_DOT":3.24e-6,"MEAN_MOTION_DDOT":0}]
