SAPPHIRE                
1 39088U 13009C   26061.49690395  .00000219  00000+0  91366-4 0  9991
2 39088  98.4214 243.4964 0010768 201.3802 158.6936 14.35205057681272
PRAETORIAN SDA_602      
1 65565U 25203A   26061.63353924  .00000335  00000+0  28874-3 0  9991
2 65565  81.3007 109.4760 0007062 118.1175 242.0697 13.84331611 23954
PRAETORIAN SDA_603      
1 65566U 25203B   26061.62672713  .00000321  00000+0  27813-3 0  9998
2 65566  81.3010 109.3228 0010724 119.4885 240.7342 13.83902041 23961
PRAETORIAN SDA_604      
1 65567U 25203C   26061.65247759  .00000010  00000+0 -15368-5 0  9990
2 65567  81.3028 109.5477 0006656 124.6165 235.5620 13.83033218 23958
PRAETORIAN SDA_605      
1 65568U 25203D   26061.79472274  .00000051  00000+0  35685-4 0  9995
2 65568  81.2992 109.1886 0009504 115.0437 245.1707 13.83527813 23984
PRAETORIAN SDA_606      
1 65569U 25203E   26061.63564275  .00000264  00000+0  22897-3 0  9998
2 65569  81.3030 109.5223 0007055 116.3209 243.8672 13.83530176 23957
PRAETORIAN SDA_607      
1 65570U 25203F   26061.63592875  .00000293  00000+0  25052-3 0  9995
2 65570  81.3015 109.3433 0010032 118.6249 241.5918 13.84464087 23968
PRAETORIAN SDA_608      
1 65571U 25203G   26061.64790949  .00000071  00000+0  52859-4 0  9999
2 65571  81.2984 109.4480 0007113 124.1494 236.0338 13.83885885 23952
PRAETORIAN SDA_609      
1 65572U 25203H   26061.61505419  .00000284  00000+0  24343-3 0  9995
2 65572  81.3028 109.4876 0008136 118.4391 241.7586 13.84313531 23953
PRAETORIAN SDA_610      
1 65573U 25203J   26061.63237823  .00000081  00000+0  62216-4 0  9996
2 65573  81.2985 109.4293 0007762 119.7962 240.3967 13.84010183 23955
PRAETORIAN SDA_611      
1 65574U 25203K   26061.65883967 -.00000094  00000+0 -96198-4 0  9997
2 65574  81.2986 109.4724 0006805 127.2430 232.9348 13.83294670 23951
PRAETORIAN SDA_612      
1 65575U 25203L   26061.63697850  .00000262  00000+0  22089-3 0  9992
2 65575  81.3004 109.3402 0010368 120.1300 240.0886 13.85043543 23964
PRAETORIAN SDA_613      
1 65576U 25203M   26061.63506852  .00000188  00000+0  16172-3 0  9997
2 65576  81.2976 109.4322 0007014 119.7408 240.4446 13.82986380 23958
PRAETORIAN SDA_614      
1 65577U 25203N   26061.60607306 -.00000641  00000+0 -58033-3 0  9999
2 65577  81.2989 109.4200 0008298 117.5212 242.6789 13.84762976 23962
PRAETORIAN SDA_615      
1 65578U 25203P   26061.62886497  .00000046  00000+0  30522-4 0  9993
2 65578  81.3000 109.2957 0010590 117.4633 242.7602 13.84419965 23961
PRAETORIAN SDA_616      
1 65579U 25203Q   26061.65807236  .00000324  00000+0  28399-3 0  9998
2 65579  81.3037 109.5533 0006542 127.1690 233.0064 13.83296766 23953
